CCSDS_OMM_VERS,COMMENT,CREATION_DATE,ORIGINATOR,OBJECT_NAME,OBJECT_ID,CENTER_NAME,REF_FRAME,TIME_SYSTEM,MEAN_ELEMENT_THEORY,EPOCH,MEAN_MOTION,ECCENTRICITY,INCLINATION,RA_OF_ASC_NODE,ARG_OF_PERICENTER,MEAN_ANOMALY,EPHEMERIS_TYPE,CLASSIFICATION_TYPE,NORAD_CAT_ID,ELEMENT_SET_NO,REV_AT_EPOCH,BSTAR,MEAN_MOTION_DOT,MEAN_MOTION_DDOT,SEMIMAJOR_AXIS,PERIOD,APOAPSIS,PERIAPSIS,OBJECT_TYPE,RCS_SIZE,COUNTRY_CODE,LAUNCH_DATE,SITE,DECAY_DATE,FILE,GP_ID,TLE_LINE0,TLE_LINE1,TLE_LINE2,,,,,,,AVG_ALTITUDE,,AVG_VELOCITY
2,GENERATED VIA SPACE-TRACK.ORG API,2022-06-03T07:06:16,18 SPCS,SPARTAN,2021-059CP,EARTH,TEME,UTC,SGP4,2022-06-02T21:58:20.219520,15.14758965,0.0008866,97.5465,283.5826,140.6498,219.538,0,U,48964,999,5175,0.00012951,2.34E-05,0,6899.847,95.065,527.83,515.595,PAYLOAD,MEDIUM,BGR,6/30/2021,AFETR,,3478419,205224763,0 SPARTAN,1 48964U 21059CP  22153.91551180  .00002337  00000-0  12951-3 0  9997,2 48964  97.5465 283.5826 0008866 140.6498 219.5380 15.14758965 51750,,,,,,,529.847,,7.60062296
2,GENERATED VIA SPACE-TRACK.ORG API,2022-06-03T07:06:16,18 SPCS,W-CUBE,2021-059CQ,EARTH,TEME,UTC,SGP4,2022-06-03T03:57:24.806016,15.13744538,0.0013909,97.5536,283.5506,136.2779,223.9557,0,U,48965,999,5175,0.00016193,2.86E-05,0,6902.93,95.128,534.396,515.193,PAYLOAD,SMALL,FIN,6/30/2021,AFETR,,3478428,205225349,0 W-CUBE,1 48965U 21059CQ  22154.16487044  .00002858  00000-0  16193-3 0  9993,2 48965  97.5536 283.5506 0013909 136.2779 223.9557 15.13744538 51757,,,,,,,532.93,,7.598925468
2,GENERATED VIA SPACE-TRACK.ORG API,2022-06-02T17:55:29,18 SPCS,NEPT-1,2021-059CR,EARTH,TEME,UTC,SGP4,2022-06-02T07:28:04.522080,15.15689713,0.0009529,97.5426,282.8815,140.7077,219.4848,0,U,48966,999,5166,0.00025785,4.85E-05,0,6897.022,95.006,525.46,512.315,PAYLOAD,SMALL,SPN,6/30/2021,AFETR,,3477482,205178622,0 NEPT-1,1 48966U 21059CR  22153.31116345  .00004847  00000-0  25785-3 0  9990,2 48966  97.5426 282.8815 0009529 140.7077 219.4848 15.15689713 51663,,,,,,,527.022,,7.602179397
2,GENERATED VIA SPACE-TRACK.ORG API,2022-06-03T02:31:39,18 SPCS,ONEWEB-0249,2021-060A,EARTH,TEME,UTC,SGP4,2022-06-02T17:19:53.189760,13.16596217,0.0002036,87.9118,162.4856,83.7844,276.3519,0,U,48967,999,4546,-7.05E-05,-1.40E-07,0,7575.886,109.373,1199.294,1196.209,PAYLOAD,LARGE,UK,7/1/2021,VOSTO,,3477983,205214203,0 ONEWEB-0249,1 48967U 21060A   22153.72214340 -.00000014  00000-0 -70491-4 0  9991,2 48967  87.9118 162.4856 0002036  83.7844 276.3519 13.16596217 45460,,,,,,,1205.886,,7.253576641
2,GENERATED VIA SPACE-TRACK.ORG API,2022-06-03T02:31:39,18 SPCS,ONEWEB-0250,2021-060B,EARTH,TEME,UTC,SGP4,2022-06-02T17:26:33.208800,13.16593706,0.000161,87.9117,162.4872,94.4512,265.6803,0,U,48968,999,4544,-6.46E-05,-1.20E-07,0,7575.896,109.373,1198.981,1196.541,PAYLOAD,LARGE,UK,7/1/2021,VOSTO,,3477983,205212452,0 ONEWEB-0250,1 48968U 21060B   22153.72677325 -.00000012  00000-0 -64646-4 0  9991,2 48968  87.9117 162.4872 0001610  94.4512 265.6803 13.16593706 45441,,,,,,,1205.896,,7.253571853
2,GENERATED VIA SPACE-TRACK.ORG API,2022-06-02T23:16:12,18 SPCS,ONEWEB-0251,2021-060C,EARTH,TEME,UTC,SGP4,2022-06-02T20:16:03.726048,15.48587521,0.0013031,87.4148,119.4555,79.0137,281.2587,0,U,48969,999,5287,0.00028299,0.00015181,0,6798.994,92.988,429.719,411.999,PAYLOAD,LARGE,UK,7/1/2021,VOSTO,,3477851,205187224,0 ONEWEB-0251,1 48969U 21060C   22153.84448757  .00015181  00000-0  28299-3 0  9994,2 48969  87.4148 119.4555 0013031  79.0137 281.2587 15.48587521 52876,,,,,,,428.994,,7.656787436
2,GENERATED VIA SPACE-TRACK.ORG API,2022-06-03T07:16:12,18 SPCS,ONEWEB-0252,2021-060D,EARTH,TEME,UTC,SGP4,2022-06-03T01:24:05.455008,13.16593307,0.0001752,87.9084,162.4168,80.2464,279.8865,0,U,48970,999,4684,-0.00020907,-6.70E-07,0,7575.897,109.373,1199.09,1196.435,PAYLOAD,LARGE,UK,7/1/2021,VOSTO,,3478508,205225932,0 ONEWEB-0252,1 48970U 21060D   22154.05839647 -.00000067  00000-0 -20907-3 0  9999,2 48970  87.9084 162.4168 0001752  80.2464 279.8865 13.16593307 46848,,,,,,,1205.897,,7.253571375
2,GENERATED VIA SPACE-TRACK.ORG API,2022-06-02T22:36:12,18 SPCS,ONEWEB-0253,2021-060E,EARTH,TEME,UTC,SGP4,2022-06-02T17:53:04.193952,13.16591923,0.0001467,87.9102,162.4997,82.1803,277.9495,0,U,48971,999,4672,-0.00026802,-9.00E-07,0,7575.903,109.373,1198.879,1196.656,PAYLOAD,LARGE,UK,7/1/2021,VOSTO,,3477605,205181274,0 ONEWEB-0253,1 48971U 21060E   22153.74518743 -.00000090  00000-0 -26802-3 0  9992,2 48971  87.9102 162.4997 0001467  82.1803 277.9495 13.16591923 46728,,,,,,,1205.903,,7.253568502
2,GENERATED VIA SPACE-TRACK.ORG API,2022-06-02T23:26:12,18 SPCS,ONEWEB-0254,2021-060F,EARTH,TEME,UTC,SGP4,2022-06-02T18:03:01.959264,13.16595945,0.0001507,87.91,162.4578,81.8565,278.2737,0,U,48972,999,4672,-5.32E-05,-7.00E-08,0,7575.887,109.373,1198.894,1196.611,PAYLOAD,LARGE,UK,7/1/2021,VOSTO,,3477903,205188352,0 ONEWEB-0254,1 48972U 21060F   22153.75210601 -.00000007  00000-0 -53152-4 0  9993,2 48972  87.9100 162.4578 0001507  81.8565 278.2737 13.16595945 46729,,,,,,,1205.887,,7.253576162
2,GENERATED VIA SPACE-TRACK.ORG API,2022-06-02T23:26:12,18 SPCS,ONEWEB-0255,2021-060G,EARTH,TEME,UTC,SGP4,2022-06-02T18:59:24.256608,13.1659467,0.0001936,87.9111,162.5225,88.2937,271.8415,0,U,48973,999,4681,-3.76E-06,1.10E-07,0,7575.892,109.373,1199.224,1196.29,PAYLOAD,MEDIUM,UK,7/1/2021,VOSTO,,3477901,205188330,0 ONEWEB-0255,1 48973U 21060G   22153.79125297  .00000011  00000-0 -37634-5 0  9996,2 48973  87.9111 162.5225 0001936  88.2937 271.8415 13.16594670 46818,,,,,,,1205.892,,7.253573768
2,GENERATED VIA SPACE-TRACK.ORG API,2022-06-02T23:26:12,18 SPCS,ONEWEB-0256,2021-060H,EARTH,TEME,UTC,SGP4,2022-06-02T17:46:25.921056,13.16594002,0.0002311,87.9101,162.4947,84.6384,275.501,0,U,48974,999,4677,-0.00032557,-1.12E-06,0,7575.895,109.373,1199.51,1196.009,PAYLOAD,MEDIUM,UK,7/1/2021,VOSTO,,3477902,205188836,0 ONEWEB-0256,1 48974U 21060H   22153.74057779 -.00000112  00000-0 -32557-3 0  9991,2 48974  87.9101 162.4947 0002311  84.6384 275.5010 13.16594002 46778,,,,,,,1205.895,,7.253572332
2,GENERATED VIA SPACE-TRACK.ORG API,2022-06-02T23:26:12,18 SPCS,ONEWEB-0257,2021-060J,EARTH,TEME,UTC,SGP4,2022-06-02T18:32:51.581472,13.16592097,0.0001867,87.9106,162.5224,78.9711,281.163,0,U,48975,999,4673,6.84E-05,3.90E-07,0,7575.902,109.373,1199.181,1196.353,PAYLOAD,LARGE,UK,7/1/2021,VOSTO,,3477903,205188357,0 ONEWEB-0257,1 48975U 21060J   22153.77281923  .00000039  00000-0  68405-4 0  9993,2 48975  87.9106 162.5224 0001867  78.9711 281.1630 13.16592097 46737,,,,,,,1205.902,,7.253568981
2,GENERATED VIA SPACE-TRACK.ORG API,2022-06-02T23:26:12,18 SPCS,ONEWEB-0258,2021-060K,EARTH,TEME,UTC,SGP4,2022-06-02T18:36:11.886048,13.16593462,0.00018,87.9115,162.5182,89.7574,270.3763,0,U,48976,999,4673,5.56E-05,3.40E-07,0,7575.897,109.373,1199.125,1196.398,PAYLOAD,LARGE,UK,7/1/2021,VOSTO,,3477901,205188832,0 ONEWEB-0258,1 48976U 21060K   22153.77513757  .00000034  00000-0  55622-4 0  9999,2 48976  87.9115 162.5182 0001800  89.7574 270.3763 13.16593462 46739,,,,,,,1205.897,,7.253571375
2,GENERATED VIA SPACE-TRACK.ORG API,2022-06-02T23:26:12,18 SPCS,ONEWEB-0259,2021-060L,EARTH,TEME,UTC,SGP4,2022-06-02T18:29:32.847648,13.16593522,0.0001317,87.9116,162.4945,92.8949,267.2332,0,U,48977,999,4677,0.0001223,6.00E-07,0,7575.896,109.373,1198.759,1196.764,PAYLOAD,LARGE,UK,7/1/2021,VOSTO,,3477901,205188325,0 ONEWEB-0259,1 48977U 21060L   22153.77051907  .00000060  00000-0  12230-3 0  9990,2 48977  87.9116 162.4945 0001317  92.8949 267.2332 13.16593522 46779,,,,,,,1205.896,,7.253571853
2,GENERATED VIA SPACE-TRACK.ORG API,2022-06-03T07:16:12,18 SPCS,ONEWEB-0260,2021-060M,EARTH,TEME,UTC,SGP4,2022-06-03T01:37:20.609760,13.16592825,0.0002372,87.9102,162.4415,64.7124,295.4253,0,U,48978,999,4678,-0.00075178,-2.75E-06,0,7575.899,109.373,1199.561,1195.967,PAYLOAD,MEDIUM,UK,7/1/2021,VOSTO,,3478498,205226971,0 ONEWEB-0260,1 48978U 21060M   22154.06759965 -.00000275  00000-0 -75178-3 0  9993,2 48978  87.9102 162.4415 0002372  64.7124 295.4253 13.16592825 46783,,,,,,,1205.899,,7.253570417
2,GENERATED VIA SPACE-TRACK.ORG API,2022-06-03T02:31:39,18 SPCS,ONEWEB-0261,2021-060N,EARTH,TEME,UTC,SGP4,2022-06-02T17:29:51.679104,13.16592021,0.0001717,87.911,162.5114,77.3148,282.8175,0,U,48979,999,4551,-0.00019243,-6.10E-07,0,7575.902,109.373,1199.068,1196.466,PAYLOAD,LARGE,UK,7/1/2021,VOSTO,,3477983,205213704,0 ONEWEB-0261,1 48979U 21060N   22153.72907036 -.00000061  00000-0 -19243-3 0  9994,2 48979  87.9110 162.5114 0001717  77.3148 282.8175 13.16592021 45519,,,,,,,1205.902,,7.253568981
2,GENERATED VIA SPACE-TRACK.ORG API,2022-06-02T23:26:12,18 SPCS,ONEWEB-0262,2021-060P,EARTH,TEME,UTC,SGP4,2022-06-02T18:52:45.167232,13.16594369,0.0001331,87.9123,162.4447,102.1447,257.9833,0,U,48980,999,4678,-0.00049254,-1.75E-06,0,7575.893,109.373,1198.767,1196.75,PAYLOAD,LARGE,UK,7/1/2021,VOSTO,,3477902,205188837,0 ONEWEB-0262,1 48980U 21060P   22153.78663388 -.00000175  00000-0 -49254-3 0  9992,2 48980  87.9123 162.4447 0001331 102.1447 257.9833 13.16594369 46785,,,,,,,1205.893,,7.25357329
2,GENERATED VIA SPACE-TRACK.ORG API,2022-06-03T07:16:12,18 SPCS,ONEWEB-0263,2021-060Q,EARTH,TEME,UTC,SGP4,2022-06-03T01:07:29.726112,13.16592899,0.0001129,87.9129,162.3881,83.1659,276.96,0,U,48981,999,4678,-0.00014214,-4.20E-07,0,7575.899,109.373,1198.619,1196.909,PAYLOAD,LARGE,UK,7/1/2021,VOSTO,,3478498,205226979,0 ONEWEB-0263,1 48981U 21060Q   22154.04687183 -.00000042  00000-0 -14214-3 0  9993,2 48981  87.9129 162.3881 0001129  83.1659 276.9600 13.16592899 46780,,,,,,,1205.899,,7.253570417
2,GENERATED VIA SPACE-TRACK.ORG API,2022-06-02T23:26:12,18 SPCS,ONEWEB-0264,2021-060R,EARTH,TEME,UTC,SGP4,2022-06-02T18:41:09.938400,13.16594517,0.0001814,87.9138,162.3956,86.876,273.2578,0,U,48982,999,4674,5.17E-05,3.30E-07,0,7575.893,109.373,1199.132,1196.383,PAYLOAD,LARGE,UK,7/1/2021,VOSTO,,3477903,205188355,0 ONEWEB-0264,1 48982U 21060R   22153.77858725  .00000033  00000-0  51731-4 0  9999,2 48982  87.9138 162.3956 0001814  86.8760 273.2578 13.16594517 46747,,,,,,,1205.893,,7.25357329
